NORAD_CAT_ID,OBJECT_NAME,OBJECT_TYPE,EPOCH,MEAN_MOTION,ECCENTRICITY,INCLINATION,RA_OF_ASC_NODE,ARG_OF_PERICENTER,MEAN_ANOMALY,BSTAR,MEAN_MOTION_DOT,MEAN_MOTION_DDOT,TLE_LINE0,TLE_LINE1,TLE_LINE2,SEMIMAJOR_AXIS,PERIOD,APOGEE,PERIGEE,DECAYED
49158.0,STARLINK-3083,PAYLOAD,2022-11-28 23:29:48,14.98336974,0.0003048,70.0007,51.7916,261.3294,98.7519,2.8066e-05,2.42e-06,0.0,0 STARLINK-3083,1 49158U 21082AE  22332.97903457  .00000242  00000-0  28066-4 0  9990,2 49158  70.0007  51.7916 0003048 261.3294  98.7519 14.98336974 68315,6950.170999999999,96.107,574.155,569.918,0.0
49158.0,STARLINK-3083,PAYLOAD,2022-11-29 12:18:52,14.98352676,0.000278,70.0008,50.4457,247.9615,112.1249,-9.8532e-05,-1.269e-05,0.0,0 STARLINK-3083,1 49158U 21082AE  22333.51310251 -.00001269  00000-0 -98532-4 0  9992,2 49158  70.0008  50.4457 0002780 247.9615 112.1249 14.98352676 68397,6950.123000000001,96.106,573.92,570.056,0.0
49158.0,STARLINK-3083,PAYLOAD,2022-11-29 15:31:09,14.98339602,0.0002882,70.0011,50.1091,258.4257,101.6578,-0.00022991,-2.836e-05,0.0,0 STARLINK-3083,1 49158U 21082AE  22333.64663251 -.00002836  00000-0 -22991-3 0  9993,2 49158  70.0011  50.1091 0002882 258.4257 101.6578 14.98339602 68419,6950.163000000001,96.106,574.031,570.025,0.0
49158.0,STARLINK-3083,PAYLOAD,2022-11-30 15:33:09,14.98337883,0.0002921,70.0007,47.5832,263.8054,96.2772,2.8975e-05,2.53e-06,0.0,0 STARLINK-3083,1 49158U 21082AE  22334.64802424  .00000253  00000-0  28975-4 0  9999,2 49158  70.0007  47.5832 0002921 263.8054  96.2772 14.98337883 68566,6950.169,96.106,574.064,570.003,0.0
49158.0,STARLINK-3083,PAYLOAD,2022-12-01 10:46:44,14.98348274,0.0002901,70.0006,45.56399999999999,257.0192,103.0643,0.0002043,2.347e-05,0.0,0 STARLINK-3083,1 49158U 21082AE  22335.44912981  .00002347  00000-0  20430-3 0  9991,2 49158  70.0006  45.5640 0002901 257.0192 103.0643 14.98348274 68689,6950.136,96.106,574.018,569.985,0.0
49158.0,STARLINK-3083,PAYLOAD,2022-12-01 21:59:40,14.98370847,0.0003273,70.0035,44.3869,262.9364,97.1423,-0.00056912,-6.884e-05,0.0,0 STARLINK-3083,1 49158U 21082AE  22335.91644156 -.00006884  00000-0 -56912-3 0  9995,2 49158  70.0035  44.3869 0003273 262.9364  97.1423 14.98370847 68758,6950.066999999999,96.104,574.206,569.6569999999998,0.0
49158.0,STARLINK-3083,PAYLOAD,2022-12-02 10:48:48,14.983107999999998,0.0002903,70.0026,43.0371,254.9013,105.1825,-8.3314e-05,-1.086e-05,0.0,0 STARLINK-3083,1 49158U 21082AE  22336.45055836 -.00001086  00000-0 -83314-4 0  9992,2 49158  70.0026  43.0371 0002903 254.9013 105.1825 14.98310800 68831,6950.252,96.108,574.135,570.1,0.0
49158.0,STARLINK-3083,PAYLOAD,2022-12-02 14:01:04,14.98315228,0.0003129,70.0006,42.7027,262.7366,97.3438,-0.00015401,-1.929e-05,0.0,0 STARLINK-3083,1 49158U 21082AE  22336.58407867 -.00001929  00000-0 -15401-3 0  9998,2 49158  70.0006  42.7027 0003129 262.7366  97.3438 14.98315228 68855,6950.239000000001,96.108,574.278,569.929,0.0
49158.0,STARLINK-3083,PAYLOAD,2022-12-03 10:50:49,14.98320938,0.0003084,70.001,40.5144,261.9959,98.085,-0.00015533,-1.945e-05,0.0,0 STARLINK-3083,1 49158U 21082AE  22337.45196514 -.00001945  00000-0 -15533-3 0  9993,2 49158  70.0010  40.5144 0003084 261.9959  98.0850 14.98320938 68989,6950.221,96.108,574.229,569.942,0.0
49158.0,STARLINK-3083,PAYLOAD,2022-12-03 12:26:58,14.98319538,0.000326,70.0003,40.346,262.6724,97.4064,-0.00020754,-2.568e-05,0.0,0 STARLINK-3083,1 49158U 21082AE  22337.51872753 -.00002568  00000-0 -20754-3 0  9999,2 49158  70.0003  40.3460 0003260 262.6724  97.4064 14.98319538 68999,6950.225,96.108,574.356,569.8240000000002,0.0
49158.0,STARLINK-3083,PAYLOAD,2022-12-03 14:03:07,14.98306319,0.0003075,70.0007,40.1775,263.7901,96.2908,-0.00031427,-3.838e-05,0.0,0 STARLINK-3083,1 49158U 21082AE  22337.58549937 -.00003838  00000-0 -31427-3 0  9991,2 49158  70.0007  40.1775 0003075 263.7901  96.2908 14.98306319 69003,6950.266,96.109,574.268,569.994,0.0
49158.0,STARLINK-3083,PAYLOAD,2022-12-04 02:52:10,14.98306975,0.0004143,70.0039,38.8293,259.4516,100.6176,0.00020099,2.305e-05,0.0,0 STARLINK-3083,1 49158U 21082AE  22338.11957071  .00002305  00000-0  20099-3 0  9992,2 49158  70.0039  38.8293 0004143 259.4516 100.6176 14.98306975 69081,6950.264,96.108,575.009,569.25,0.0
49158.0,STARLINK-3083,PAYLOAD,2022-12-04 10:52:50,14.98322972,0.0003279,70.0008,37.9902,264.6188,95.4597,0.00035799,4.18e-05,0.0,0 STARLINK-3083,1 49158U 21082AE  22338.45336319  .00004180  00000-0  35799-3 0  9991,2 49158  70.0008  37.9902 0003279 264.6188  95.4597 14.98322972 69135,6950.215,96.107,574.359,569.8009999999998,0.0
49158.0,STARLINK-3083,PAYLOAD,2022-12-04 14:05:06,14.98324446,0.0003058,70.001,37.653,263.5216,96.5595,0.0003636,4.247e-05,0.0,0 STARLINK-3083,1 49158U 21082AE  22338.58688332  .00004247  00000-0  36360-3 0  9999,2 49158  70.0010  37.6530 0003058 263.5216  96.5595 14.98324446 69157,6950.21,96.107,574.2,569.95,0.0
49158.0,STARLINK-3083,PAYLOAD,2022-12-05 10:54:52,14.98329995,0.0002849,70.0008,35.4634,260.6453,99.4384,7.8764e-05,8.47e-06,0.0,0 STARLINK-3083,1 49158U 21082AE  22339.45477178  .00000847  00000-0  78764-4 0  9997,2 49158  70.0008  35.4634 0002849 260.6453  99.4384 14.98329995 69289,6950.193,96.107,574.038,570.078,0.0
49158.0,STARLINK-3083,PAYLOAD,2022-12-05 20:31:40,14.98336193,0.0003029,70.0013,34.4561,258.81,101.2719,7.1324e-05,7.58e-06,0.0,0 STARLINK-3083,1 49158U 21082AE  22339.85532810  .00000758  00000-0  71324-4 0  9992,2 49158  70.0013  34.4561 0003029 258.8100 101.2719 14.98336193 69341,6950.174,96.107,574.144,569.934,0.0
49158.0,STARLINK-3083,PAYLOAD,2022-12-06 06:08:28,14.98348839,0.0002995,70.0004,33.4448,263.1978,96.884,4.5798e-05,4.54e-06,0.0,0 STARLINK-3083,1 49158U 21082AE  22340.25588107  .00000454  00000-0  45798-4 0  9997,2 49158  70.0004  33.4448 0002995 263.1978  96.8840 14.98348839 69408,6950.135,96.106,574.081,569.918,0.0
49158.0,STARLINK-3083,PAYLOAD,2022-12-06 09:20:44,14.98346539,0.0003181,70.0007,33.1083,263.0895,96.9902,0.00014764,1.67e-05,0.0,0 STARLINK-3083,1 49158U 21082AE  22340.38940052  .00001670  00000-0  14764-3 0  9991,2 49158  70.0007  33.1083 0003181 263.0895  96.9902 14.98346539 69425,6950.142,96.106,574.2180000000002,569.7959999999998,0.0
49158.0,STARLINK-3083,PAYLOAD,2022-12-06 14:09:08,14.98349792,0.0003121,70.0024,32.6037,262.8745,97.2059,0.00022346,2.576e-05,0.0,0 STARLINK-3083,1 49158U 21082AE  22340.58967679  .00002576  00000-0  22346-3 0  9998,2 49158  70.0024  32.6037 0003121 262.8745  97.2059 14.98349792 69456,6950.132,96.106,574.1659999999998,569.828,0.0
49158.0,STARLINK-3083,PAYLOAD,2022-12-07 09:22:44,14.98339854,0.0003018,70.0042,30.5847,256.1127,103.9696,0.0003923,4.592e-05,0.0,0 STARLINK-3083,1 49158U 21082AE  22341.39079605  .00004592  00000-0  39230-3 0  9991,2 49158  70.0042  30.5847 0003018 256.1127 103.9696 14.98339854 69570,6950.1619999999975,96.106,574.125,569.93,0.0
49158.0,STARLINK-3083,PAYLOAD,2022-12-07 20:35:41,14.98336416,0.0002841,70.0034,29.4069,259.4772,100.6067,1.8504e-05,1.28e-06,0.0,0 STARLINK-3083,1 49158U 21082AE  22341.85811672  .00000128  00000-0  18504-4 0  9993,2 49158  70.0034  29.4069 0002841 259.4772 100.6067 14.98336416 69644,6950.1730000000025,96.107,574.013,570.064,0.0
49158.0,STARLINK-3083,PAYLOAD,2022-12-08 09:24:44,14.98343726,0.0003196,70.0032,28.0593,255.3405,104.7399,0.00011352,1.262e-05,0.0,0 STARLINK-3083,1 49158U 21082AE  22342.39218747  .00001262  00000-0  11352-3 0  9990,2 49158  70.0032  28.0593 0003196 255.3405 104.7399 14.98343726 69725,6950.15,96.106,574.237,569.794,0.0
49158.0,STARLINK-3083,PAYLOAD,2022-12-08 20:37:40,14.98358463,0.0003931,70.0038,26.8841,267.5587,92.5122,0.00037688,4.41e-05,0.0,0 STARLINK-3083,1 49158U 21082AE  22342.85949276  .00004410  00000-0  37688-3 0  9997,2 49158  70.0038  26.8841 0003931 267.5587  92.5122 14.98358463 69795,6950.105,96.105,574.702,569.238,0.0
49158.0,STARLINK-3083,PAYLOAD,2022-12-09 03:02:12,14.98357667,0.0003327,70.0031,26.2092,265.6955,94.3824,0.00051716,6.088e-05,0.0,0 STARLINK-3083,1 49158U 21082AE  22343.12653337  .00006088  00000-0  51716-3 0  9999,2 49158  70.0031  26.2092 0003327 265.6955  94.3824 14.98357667 69836,6950.107,96.105,574.285,569.66,0.0
49158.0,STARLINK-3083,PAYLOAD,2022-12-09 04:38:20,14.98343028,0.00034,70.0033,26.0413,263.9676,96.1096,0.00011652,1.298e-05,0.0,0 STARLINK-3083,1 49158U 21082AE  22343.19329742  .00001298  00000-0  11652-3 0  9999,2 49158  70.0033  26.0413 0003400 263.9676  96.1096 14.98343028 69844,6950.153,96.106,574.381,569.655,0.0
49158.0,STARLINK-3083,PAYLOAD,2022-12-10 11:04:54,14.98332951,0.0002966,70.0033,22.8419,253.9354,106.1478,1.3524e-05,6.8e-07,0.0,0 STARLINK-3083,1 49158U 21082AE  22344.46173900  .00000068  00000-0  13524-4 0  9998,2 49158  70.0033  22.8419 0002966 253.9354 106.1478 14.98332951 70034,6950.184,96.107,574.11,569.987,0.0
49158.0,STARLINK-3083,PAYLOAD,2022-12-10 12:41:02,14.98336502,0.0003134,70.0027,22.6754,259.7583,100.3223,2.1853e-06,-6.7e-07,0.0,0 STARLINK-3083,1 49158U 21082AE  22344.52849607 -.00000067  00000-0  21853-5 0  9994,2 49158  70.0027  22.6754 0003134 259.7583 100.3223 14.98336502 70044,6950.1730000000025,96.107,574.216,569.86,0.0
49158.0,STARLINK-3083,PAYLOAD,2022-12-10 14:17:10,14.98338313,0.0003321,70.0022,22.507,263.7061,96.3719,2.5112e-05,2.07e-06,0.0,0 STARLINK-3083,1 49158U 21082AE  22344.59525497  .00000207  00000-0  25112-4 0  9995,2 49158  70.0022  22.5070 0003321 263.7061  96.3719 14.98338313 70050,6950.167,96.106,574.34,569.724,0.0
49158.0,STARLINK-3083,PAYLOAD,2022-12-11 03:06:13,14.98345609,0.0003849,70.0028,21.1578,259.4644,100.6082,-0.0001052,-1.349e-05,0.0,0 STARLINK-3083,1 49158U 21082AE  22345.12932621 -.00001349  00000-0 -10520-3 0  9992,2 49158  70.0028  21.1578 0003849 259.4644 100.6082 14.98345609 70135,6950.145,96.106,574.685,569.335,0.0
